[{"OBJECT_NAME":"ONEWEB-0627","OBJECT_ID":"2023-004AE","EPOCH":"2025-09-19T22:58:12.175968","MEAN_MOTION":13.17648957,"ECCENTRICITY":0.00022694,"INCLINATION":87.905,"RA_OF_ASC_NODE":59.6344,"ARG_OF_PERICENTER":90.6985,"MEAN_ANOMALY":269.4407,"EPHEMERIS_TYPE":0,"CLASSIFICATION_TYPE":"U","NORAD_CAT_ID":55168,"ELEMENT_SET_NO":999,"REV_AT_EPOCH":13199,"BSTAR":1.7466364e-5,"MEAN_MOTION_DOT":2.0e-7,"MEAN_MOTION_DDOT":0},{"OBJECT_NAME":"ONEWEB-0628","OBJECT_ID":"2023-004AF","EPOCH":"2025-09-19T21:57:00.580320","MEAN_MOTION":13.12443717,"ECCENTRICITY":0.00023191,"INCLINATION":87.8919,"RA_OF_ASC_NODE":44.3417,"ARG_OF_PERICENTER":86.8688,"MEAN_ANOMALY":273.2706,"EPHEMERIS_TYPE":0,"CLASSIFICATION_TYPE":"U","NORAD_CAT_ID":55169,"ELEMENT_SET_NO":999,"REV_AT_EPOCH":13258,"BSTAR":0.00069820183,"MEAN_MOTION_DOT":2.64e-6,"MEAN_MOTION_DDOT":0},{"OBJECT_NAME":"ONEWEB-0629","OBJECT_ID":"2023-004AG","EPOCH":"2025-09-19T22:22:58.447488","MEAN_MOTION":13.17648602,"ECCENTRICITY":0.00017738,"INCLINATION":87.9055,"RA_OF_ASC_NODE":59.6343,"ARG_OF_PERICENTER":81.9551,"MEAN_ANOMALY":278.1781,"EPHEMERIS_TYPE":0,"CLASSIFICATION_TYPE":"U","NORAD_CAT_ID":55170,"ELEMENT_SET_NO":999,"REV_AT_EPOCH":13199,"BSTAR":-0.00018803392,"MEAN_MOTION_DOT":-6.0e-7,"MEAN_MOTION_DDOT":0},{"OBJECT_NAME":"ONEWEB-0631","OBJECT_ID":"2023-004AH","EPOCH":"2025-09-20T01:21:36.028800","MEAN_MOTION":13.18684402,"ECCENTRICITY":0.00021049,"INCLINATION":87.9201,"RA_OF_ASC_NODE":29.0704,"ARG_OF_PERICENTER":112.2615,"MEAN_ANOMALY":247.874,"EPHEMERIS_TYPE":0,"CLASSIFICATION_TYPE":"U","NORAD_CAT_ID":55171,"ELEMENT_SET_NO":999,"REV_AT_EPOCH":13407,"BSTAR":0.00017861486,"MEAN_MOTION_DOT":8.3e-7,"MEAN_MOTION_DDOT":0},{"OBJECT_NAME":"ONEWEB-0709","OBJECT_ID":"2023-004AJ","EPOCH":"2025-09-19T23:04:05.270304","MEAN_MOTION":13.11414522,"ECCENTRICITY":0.00016319,"INCLINATION":87.8776,"RA_OF_ASC_NODE":74.9223,"ARG_OF_PERICENTER":123.6482,"MEAN_ANOMALY":236.4802,"EPHEMERIS_TYPE":0,"CLASSIFICATION_TYPE":"U","NORAD_CAT_ID":55172,"ELEMENT_SET_NO":999,"REV_AT_EPOCH":13045,"BSTAR":-0.0013052968,"MEAN_MOTION_DOT":-4.5e-6,"MEAN_MOTION_DDOT":0},{"OBJECT_NAME":"ONEWEB-0710","OBJECT_ID":"2023-004AK","EPOCH":"2025-09-19T22:43:36.238944","MEAN_MOTION":13.1764732,"ECCENTRICITY":0.00019009,"INCLINATION":87.9051,"RA_OF_ASC_NODE":59.6267,"ARG_OF_PERICENTER":92.4188,"MEAN_ANOMALY":267.7162,"EPHEMERIS_TYPE":0,"CLASSIFICATION_TYPE":"U","NORAD_CAT_ID":55173,"ELEMENT_SET_NO":999,"REV_AT_EPOCH":13199,"BSTAR":-0.00013777772,"MEAN_MOTION_DOT":-4.1e-7,"MEAN_MOTION_DDOT":0},{"OBJECT_NAME":"ONEWEB-0711","OBJECT_ID":"2023-004AL","EPOCH":"2025-09-19T22:22:36.351552","MEAN_MOTION":13.11416673,"ECCENTRICITY":0.00024796,"INCLINATION":87.8784,"RA_OF_ASC_NODE":74.8958,"ARG_OF_PERICENTER":86.6672,"MEAN_ANOMALY":273.4739,"EPHEMERIS_TYPE":0,"CLASSIFICATION_TYPE":"U","NORAD_CAT_ID":55174,"ELEMENT_SET_NO":999,"REV_AT_EPOCH":13041,"BSTAR":0.0016317946,"MEAN_MOTION_DOT":5.91e-6,"MEAN_MOTION_DDOT":0},{"OBJECT_NAME":"ONEWEB-0713","OBJECT_ID":"2023-004AM","EPOCH":"2025-09-19T22:49:26.763744","MEAN_MOTION":13.11415464,"ECCENTRICITY":0.00019746,"INCLINATION":87.8776,"RA_OF_ASC_NODE":74.8989,"ARG_OF_PERICENTER":89.1777,"MEAN_ANOMALY":270.9577,"EPHEMERIS_TYPE":0,"CLASSIFICATION_TYPE":"U","NORAD_CAT_ID":55175,"ELEMENT_SET_NO":999,"REV_AT_EPOCH":13040,"BSTAR":-0.00013125379,"MEAN_MOTION_DOT":-3.4e-7,"MEAN_MOTION_DDOT":0},{"OBJECT_NAME":"ONEWEB-0715","OBJECT_ID":"2023-004AN","EPOCH":"2025-09-19T22:42:08.301024","MEAN_MOTION":13.11416334,"ECCENTRICITY":0.00019551,"INCLINATION":87.8774,"RA_OF_ASC_NODE":74.9,"ARG_OF_PERICENTER":111.4947,"MEAN_ANOMALY":248.6389,"EPHEMERIS_TYPE":0,"CLASSIFICATION_TYPE":"U","NORAD_CAT_ID":55176,"ELEMENT_SET_NO":999,"REV_AT_EPOCH":13044,"BSTAR":0.00053241101,"MEAN_MOTION_DOT":2.01e-6,"MEAN_MOTION_DDOT":0},{"OBJECT_NAME":"ONEWEB-0716","OBJECT_ID":"2023-004AP","EPOCH":"2025-09-19T22:33:53.573760","MEAN_MOTION":13.17649354,"ECCENTRICITY":0.00015194,"INCLINATION":87.9051,"RA_OF_ASC_NODE":59.6278,"ARG_OF_PERICENTER":90.4405,"MEAN_ANOMALY":269.69,"EPHEMERIS_TYPE":0,"CLASSIFICATION_TYPE":"U","NORAD_CAT_ID":55177,"ELEMENT_SET_NO":999,"REV_AT_EPOCH":13199,"BSTAR":-5.7884179e-5,"MEAN_MOTION_DOT":-1.0e-7,"MEAN_MOTION_DDOT":0},{"OBJECT_NAME":"ONEWEB-0717","OBJECT_ID":"2023-004AQ","EPOCH":"2025-09-19T22:09:35.125344","MEAN_MOTION":13.17649289,"ECCENTRICITY":0.00024905,"INCLINATION":87.9061,"RA_OF_ASC_NODE":59.5945,"ARG_OF_PERICENTER":94.2959,"MEAN_ANOMALY":265.8457,"EPHEMERIS_TYPE":0,"CLASSIFICATION_TYPE":"U","NORAD_CAT_ID":55178,"ELEMENT_SET_NO":999,"REV_AT_EPOCH":13204,"BSTAR":-7.299289e-6,"MEAN_MOTION_DOT":1.0e-7,"MEAN_MOTION_DDOT":0},{"OBJECT_NAME":"ONEWEB-0719","OBJECT_ID":"2023-004AR","EPOCH":"2025-09-19T22:24:10.127520","MEAN_MOTION":13.1764725,"ECCENTRICITY":0.00016643,"INCLINATION":87.906,"RA_OF_ASC_NODE":59.5753,"ARG_OF_PERICENTER":85.8574,"MEAN_ANOMALY":274.2748,"EPHEMERIS_TYPE":0,"CLASSIFICATION_TYPE":"U","NORAD_CAT_ID":55179,"ELEMENT_SET_NO":999,"REV_AT_EPOCH":13199,"BSTAR":-8.6208208e-5,"MEAN_MOTION_DOT":-2.1e-7,"MEAN_MOTION_DDOT":0},{"OBJECT_NAME":"ONEWEB-0530","OBJECT_ID":"2023-029A","EPOCH":"2025-09-19T22:36:06.633216","MEAN_MOTION":13.20772183,"ECCENTRICITY":0.00023034,"INCLINATION":87.927,"RA_OF_ASC_NODE":328.3671,"ARG_OF_PERICENTER":90.2182,"MEAN_ANOMALY":269.9216,"EPHEMERIS_TYPE":0,"CLASSIFICATION_TYPE":"U","NORAD_CAT_ID":55796,"ELEMENT_SET_NO":999,"REV_AT_EPOCH":12547,"BSTAR":0.00019924341,"MEAN_MOTION_DOT":9.4e-7,"MEAN_MOTION_DDOT":0},{"OBJECT_NAME":"ONEWEB-0534","OBJECT_ID":"2023-029B","EPOCH":"2025-09-20T03:45:10.326528","MEAN_MOTION":13.20785888,"ECCENTRICITY":0.00016959,"INCLINATION":87.9262,"RA_OF_ASC_NODE":328.3281,"ARG_OF_PERICENTER":97.5127,"MEAN_ANOMALY":262.6199,"EPHEMERIS_TYPE":0,"CLASSIFICATION_TYPE":"U","NORAD_CAT_ID":55797,"ELEMENT_SET_NO":999,"REV_AT_EPOCH":12550,"BSTAR":-0.0075531428,"MEAN_MOTION_DOT":-3.058e-5,"MEAN_MOTION_DDOT":0},{"OBJECT_NAME":"ONEWEB-0556","OBJECT_ID":"2023-029C","EPOCH":"2025-09-20T03:54:18.137952","MEAN_MOTION":13.20771816,"ECCENTRICITY":0.00018731,"INCLINATION":87.9266,"RA_OF_ASC_NODE":328.3225,"ARG_OF_PERICENTER":74.7441,"MEAN_ANOMALY":285.39,"EPHEMERIS_TYPE":0,"CLASSIFICATION_TYPE":"U","NORAD_CAT_ID":55798,"ELEMENT_SET_NO":999,"REV_AT_EPOCH":12550,"BSTAR":6.7674223e-5,"MEAN_MOTION_DOT":4.0e-7,"MEAN_MOTION_DDOT":0},{"OBJECT_NAME":"ONEWEB-0562","OBJECT_ID":"2023-029D","EPOCH":"2025-09-20T03:36:06.337440","MEAN_MOTION":13.20769972,"ECCENTRICITY":0.00024801,"INCLINATION":87.9261,"RA_OF_ASC_NODE":328.312,"ARG_OF_PERICENTER":79.2578,"MEAN_ANOMALY":280.8834,"EPHEMERIS_TYPE":0,"CLASSIFICATION_TYPE":"U","NORAD_CAT_ID":55799,"ELEMENT_SET_NO":999,"REV_AT_EPOCH":12550,"BSTAR":0.0002110161,"MEAN_MOTION_DOT":9.9e-7,"MEAN_MOTION_DDOT":0},{"OBJECT_NAME":"ONEWEB-0563","OBJECT_ID":"2023-029E","EPOCH":"2025-09-20T03:26:57.014880","MEAN_MOTION":13.20774822,"ECCENTRICITY":0.00016346,"INCLINATION":87.9269,"RA_OF_ASC_NODE":328.3353,"ARG_OF_PERICENTER":95.0436,"MEAN_ANOMALY":265.0884,"EPHEMERIS_TYPE":0,"CLASSIFICATION_TYPE":"U","NORAD_CAT_ID":55800,"ELEMENT_SET_NO":999,"REV_AT_EPOCH":12549,"BSTAR":0.00019958048,"MEAN_MOTION_DOT":9.4e-7,"MEAN_MOTION_DDOT":0}]
