ONEWEB-0627             
1 55168U 23004AE  25262.95708537  .00000020  00000+0  17466-4 0  9994
2 55168  87.9050  59.6344 0002269  90.6985 269.4407 13.17648957131999
ONEWEB-0628             
1 55169U 23004AF  25262.91459005  .00000264  00000+0  69820-3 0  9994
2 55169  87.8919  44.3417 0002319  86.8688 273.2706 13.12443717132581
ONEWEB-0629             
1 55170U 23004AG  25262.93262092 -.00000060  00000+0 -18803-3 0  9997
2 55170  87.9055  59.6343 0001773  81.9551 278.1781 13.17648602131996
ONEWEB-0631             
1 55171U 23004AH  25263.05666700  .00000083  00000+0  17861-3 0  9992
2 55171  87.9201  29.0704 0002104 112.2615 247.8740 13.18684402134079
ONEWEB-0709             
1 55172U 23004AJ  25262.96117211 -.00000450  00000+0 -13053-2 0  9998
2 55172  87.8776  74.9223 0001631 123.6482 236.4802 13.11414522130451
ONEWEB-0710             
1 55173U 23004AK  25262.94694721 -.00000041  00000+0 -13778-3 0  9994
2 55173  87.9051  59.6267 0001900  92.4188 267.7162 13.17647320131998
ONEWEB-0711             
1 55174U 23004AL  25262.93236518  .00000591  00000+0  16318-2 0  9990
2 55174  87.8784  74.8958 0002479  86.6672 273.4739 13.11416673130411
ONEWEB-0713             
1 55175U 23004AM  25262.95100421 -.00000034  00000+0 -13125-3 0  9994
2 55175  87.8776  74.8989 0001974  89.1777 270.9577 13.11415464130408
ONEWEB-0715             
1 55176U 23004AN  25262.94592941  .00000201  00000+0  53241-3 0  9993
2 55176  87.8774  74.9000 0001955 111.4947 248.6389 13.11416334130443
ONEWEB-0716             
1 55177U 23004AP  25262.94020340 -.00000010  00000+0 -57884-4 0  9991
2 55177  87.9051  59.6278 0001519  90.4405 269.6900 13.17649354131990
ONEWEB-0717             
1 55178U 23004AQ  25262.92332321  .00000010  00000+0 -72993-5 0  9993
2 55178  87.9061  59.5945 0002490  94.2959 265.8457 13.17649289132046
ONEWEB-0719             
1 55179U 23004AR  25262.93345055 -.00000021  00000+0 -86208-4 0  9999
2 55179  87.9060  59.5753 0001664  85.8574 274.2748 13.17647250131990
ONEWEB-0530             
1 55796U 23029A   25262.94174344  .00000094  00000+0  19924-3 0  9991
2 55796  87.9270 328.3671 0002303  90.2182 269.9216 13.20772183125475
ONEWEB-0534             
1 55797U 23029B   25263.15636952 -.00003058  00000+0 -75531-2 0  9994
2 55797  87.9262 328.3281 0001695  97.5127 262.6199 13.20785888125506
ONEWEB-0556             
1 55798U 23029C   25263.16270993  .00000040  00000+0  67674-4 0  9992
2 55798  87.9266 328.3225 0001873  74.7441 285.3900 13.20771816125501
ONEWEB-0562             
1 55799U 23029D   25263.15007335  .00000099  00000+0  21102-3 0  9999
2 55799  87.9261 328.3120 0002480  79.2578 280.8834 13.20769972125503
ONEWEB-0563             
1 55800U 23029E   25263.14371545  .00000094  00000+0  19958-3 0  9999
2 55800  87.9269 328.3353 0001634  95.0436 265.0884 13.20774822125499
